[
    {
        "Altitude(m)": 709518.3885375834,
        "Argument of Periapsis(deg)": 0.0022780242373254137,
        "Eccentricity": 0.0,
        "Inclination(deg)": 45.0,
        "Latitude(deg)": -24.116975054797543,
        "Longitude(deg)": 141.3106968618489,
        "Mean Anomaly(deg)": 215.03394332949625,
        "RAAN(deg)": 34.99784961170836,
        "Satellite Name": "Constellation 1 167",
        "Satellite Number": 167,
        "Semi-Major Axis(m)": 7083131.272910544,
        "Time(s)": 38
    },
    {
        "Altitude(m)": 709532.1075849383,
        "Argument of Periapsis(deg)": 0.002337972243570819,
        "Eccentricity": 0.0,
        "Inclination(deg)": 45.0,
        "Latitude(deg)": -24.15554743251945,
        "Longitude(deg)": 141.3579240079837,
        "Mean Anomaly(deg)": 215.09464446974607,
        "RAAN(deg)": 34.99779302254279,
        "Satellite Name": "Constellation 1 167",
        "Satellite Number": 167,
        "Semi-Major Axis(m)": 7083131.272910544,
        "Time(s)": 39
    },
    {
        "Altitude(m)": 709545.8300652662,
        "Argument of Periapsis(deg)": 0.0023979202498162246,
        "Eccentricity": 0.0,
        "Inclination(deg)": 45.0,
        "Latitude(deg)": -24.19410224928646,
        "Longitude(deg)": 141.40518184267194,
        "Mean Anomaly(deg)": 215.155345609996,
        "RAAN(deg)": 34.99773643337722,
        "Satellite Name": "Constellation 1 167",
        "Satellite Number": 167,
        "Semi-Major Axis(m)": 7083131.272910544,
        "Time(s)": 40
    },
    {
        "Altitude(m)": 709559.5559322359,
        "Argument of Periapsis(deg)": 0.00245786825606163,
        "Eccentricity": 0.0,
        "Inclination(deg)": 45.0,
        "Latitude(deg)": -24.23263946376638,
        "Longitude(deg)": 141.4524704258918,
        "Mean Anomaly(deg)": 215.21604675024585,
        "RAAN(deg)": 34.997679844211646,
        "Satellite Name": "Constellation 1 167",
        "Satellite Number": 167,
        "Semi-Major Axis(m)": 7083131.272910544,
        "Time(s)": 41
    },
    {
        "Altitude(m)": 709573.285139478,
        "Argument of Periapsis(deg)": 0.002517816262307036,
        "Eccentricity": 0.0,
        "Inclination(deg)": 45.0,
        "Latitude(deg)": -24.27115903456746,
        "Longitude(deg)": 141.4997898176324,
        "Mean Anomaly(deg)": 215.2767478904958,
        "RAAN(deg)": 34.99762325504608,
        "Satellite Name": "Constellation 1 167",
        "Satellite Number": 167,
        "Semi-Major Axis(m)": 7083131.272910544,
        "Time(s)": 42
    },
    {
        "Altitude(m)": 709587.0176406108,
        "Argument of Periapsis(deg)": 0.0025777642685524413,
        "Eccentricity": 0.0,
        "Inclination(deg)": 45.0,
        "Latitude(deg)": -24.309660920238077,
        "Longitude(deg)": 141.54714007789318,
        "Mean Anomaly(deg)": 215.33744903074566,
        "RAAN(deg)": 34.997566665880505,
        "Satellite Name": "Constellation 1 167",
        "Satellite Number": 167,
        "Semi-Major Axis(m)": 7083131.272910544,
        "Time(s)": 43
    },
    {
        "Altitude(m)": 709600.7533892115,
        "Argument of Periapsis(deg)": 0.002637712274797847,
        "Eccentricity": 0.0,
        "Inclination(deg)": 45.0,
        "Latitude(deg)": -24.34814507926662,
        "Longitude(deg)": 141.59452109858694,
        "Mean Anomaly(deg)": 215.39815017099556,
        "RAAN(deg)": 34.99751007671494,
        "Satellite Name": "Constellation 1 167",
        "Satellite Number": 167,
        "Semi-Major Axis(m)": 7083131.272910544,
        "Time(s)": 44
    },
    {
        "Altitude(m)": 709614.4923388434,
        "Argument of Periapsis(deg)": 0.0026976602810432526,
        "Eccentricity": 0.0,
        "Inclination(deg)": 45.0,
        "Latitude(deg)": -24.38661147008213,
        "Longitude(deg)": 141.64193327592733,
        "Mean Anomaly(deg)": 215.45885131124547,
        "RAAN(deg)": 34.997453487549365,
        "Satellite Name": "Constellation 1 167",
        "Satellite Number": 167,
        "Semi-Major Axis(m)": 7083131.272910544,
        "Time(s)": 45
    },
    {
        "Altitude(m)": 709628.2344430422,
        "Argument of Periapsis(deg)": 0.0027576082872886585,
        "Eccentricity": 0.0,
        "Inclination(deg)": 45.0,
        "Latitude(deg)": -24.42506005105282,
        "Longitude(deg)": 141.68937650184688,
        "Mean Anomaly(deg)": 215.5195524514954,
        "RAAN(deg)": 34.9973968983838,
        "Satellite Name": "Constellation 1 167",
        "Satellite Number": 167,
        "Semi-Major Axis(m)": 7083131.272910544,
        "Time(s)": 46
    },
    {
        "Altitude(m)": 709641.9796553096,
        "Argument of Periapsis(deg)": 0.0028175562935340644,
        "Eccentricity": 0.0,
        "Inclination(deg)": 45.0,
        "Latitude(deg)": -24.463490780486925,
        "Longitude(deg)": 141.7368508363844,
        "Mean Anomaly(deg)": 215.58025359174525,
        "RAAN(deg)": 34.99734030921823,
        "Satellite Name": "Constellation 1 167",
        "Satellite Number": 167,
        "Semi-Major Axis(m)": 7083131.272910544,
        "Time(s)": 47
    },
    {
        "Altitude(m)": 709655.727929144,
        "Argument of Periapsis(deg)": 0.00287750429977947,
        "Eccentricity": 0.0,
        "Inclination(deg)": 45.0,
        "Latitude(deg)": -24.501903616632458,
        "Longitude(deg)": 141.7843563395882,
        "Mean Anomaly(deg)": 215.64095473199512,
        "RAAN(deg)": 34.997283720052664,
        "Satellite Name": "Constellation 1 167",
        "Satellite Number": 167,
        "Semi-Major Axis(m)": 7083131.272910544,
        "Time(s)": 48
    },
    {
        "Altitude(m)": 709669.4792179967,
        "Argument of Periapsis(deg)": 0.002937452306024875,
        "Eccentricity": 0.0,
        "Inclination(deg)": 45.0,
        "Latitude(deg)": -24.54029851767708,
        "Longitude(deg)": 141.83189307151545,
        "Mean Anomaly(deg)": 215.70165587224506,
        "RAAN(deg)": 34.99722713088709,
        "Satellite Name": "Constellation 1 167",
        "Satellite Number": 167,
        "Semi-Major Axis(m)": 7083131.272910544,
        "Time(s)": 49
    },
    {
        "Altitude(m)": 709683.2334753122,
        "Argument of Periapsis(deg)": 0.0029974003122702807,
        "Eccentricity": 0.0,
        "Inclination(deg)": 45.0,
        "Latitude(deg)": -24.578675441747652,
        "Longitude(deg)": 141.87946109223185,
        "Mean Anomaly(deg)": 215.76235701249496,
        "RAAN(deg)": 34.99717054172152,
        "Satellite Name": "Constellation 1 167",
        "Satellite Number": 167,
        "Semi-Major Axis(m)": 7083131.272910544,
        "Time(s)": 50
    },
    {
        "Altitude(m)": 709696.9906544948,
        "Argument of Periapsis(deg)": 0.0030573483185156866,
        "Eccentricity": 0.0,
        "Inclination(deg)": 45.0,
        "Latitude(deg)": -24.617034346910785,
        "Longitude(deg)": 141.92706046181172,
        "Mean Anomaly(deg)": 215.8230581527449,
        "RAAN(deg)": 34.99711395255595,
        "Satellite Name": "Constellation 1 167",
        "Satellite Number": 167,
        "Semi-Major Axis(m)": 7083131.272910544,
        "Time(s)": 51
    },
    {
        "Altitude(m)": 709710.750708934,
        "Argument of Periapsis(deg)": 0.003117296324761092,
        "Eccentricity": 0.0,
        "Inclination(deg)": 45.0,
        "Latitude(deg)": -24.65537519117186,
        "Longitude(deg)": 141.97469107224055,
        "Mean Anomaly(deg)": 215.8837592929947,
        "RAAN(deg)": 34.99705736339038,
        "Satellite Name": "Constellation 1 167",
        "Satellite Number": 167,
        "Semi-Major Axis(m)": 7083131.272910544,
        "Time(s)": 52
    },
    {
        "Altitude(m)": 709724.5135919972,
        "Argument of Periapsis(deg)": 0.0031772443310064975,
        "Eccentricity": 0.0,
        "Inclination(deg)": 45.0,
        "Latitude(deg)": -24.693697932476283,
        "Longitude(deg)": 142.02235331980256,
        "Mean Anomaly(deg)": 215.94446043324464,
        "RAAN(deg)": 34.99700077422481,
        "Satellite Name": "Constellation 1 167",
        "Satellite Number": 167,
        "Semi-Major Axis(m)": 7083131.272910544,
        "Time(s)": 53
    },
    {
        "Altitude(m)": 709738.2792570284,
        "Argument of Periapsis(deg)": 0.0032371923372519038,
        "Eccentricity": 0.0,
        "Inclination(deg)": 45.0,
        "Latitude(deg)": -24.732002528707813,
        "Longitude(deg)": 142.07004709649885,
        "Mean Anomaly(deg)": 216.00516157349458,
        "RAAN(deg)": 34.99694418505925,
        "Satellite Name": "Constellation 1 167",
        "Satellite Number": 167,
        "Semi-Major Axis(m)": 7083131.272910544,
        "Time(s)": 54
    },
    {
        "Altitude(m)": 709752.0476573382,
        "Argument of Periapsis(deg)": 0.0032971403434973088,
        "Eccentricity": 0.0,
        "Inclination(deg)": 45.0,
        "Latitude(deg)": -24.770288937689365,
        "Longitude(deg)": 142.11777246243466,
        "Mean Anomaly(deg)": 216.06586271374442,
        "RAAN(deg)": 34.996887595893675,
        "Satellite Name": "Constellation 1 167",
        "Satellite Number": 167,
        "Semi-Major Axis(m)": 7083131.272910544,
        "Time(s)": 55
    },
    {
        "Altitude(m)": 709765.8187462268,
        "Argument of Periapsis(deg)": 0.0033570883497427146,
        "Eccentricity": 0.0,
        "Inclination(deg)": 45.0,
        "Latitude(deg)": -24.808557117182918,
        "Longitude(deg)": 142.16552947772263,
        "Mean Anomaly(deg)": 216.12656385399444,
        "RAAN(deg)": 34.99683100672811,
        "Satellite Name": "Constellation 1 167",
        "Satellite Number": 167,
        "Semi-Major Axis(m)": 7083131.272910544,
        "Time(s)": 56
    }
]